SPACEBEE-7              
1 43816U 18099BL  22358.60776360  .00005504  00000+0  45667-3 0  9998
2 43816  97.6077  62.2888 0011690 347.0653  13.0269 14.99140618221121
SPACEBEE-5              
1 43817U 18099BM  22358.74865627  .00015905  00000+0  11102-2 0  9991
2 43817  97.6156  66.8610 0004621 336.9209  23.1810 15.05435957221353
SPACEBEE-6              
1 43818U 18099BN  22359.13172905  .00007208  00000+0  56936-3 0  9998
2 43818  97.6111  64.1367 0016332 349.1301  10.9568 15.00874847221417
SPACEBEE-21             
1 46300U 20061AE  22359.16086329  .00034094  00000+0  12328-2 0  9995
2 46300  97.4311  69.4778 0000485 130.2077 229.9205 15.28363610127552
SPACEBEE-20             
1 46301U 20061AF  22359.09859120  .00035515  00000+0  12853-2 0  9997
2 46301  97.4346  69.5546 0000448 153.5285 206.5978 15.28325801127540
SPACEBEE-15             
1 46302U 20061AG  22359.19319670  .00042228  00000+0  14088-2 0  9991
2 46302  97.4312  70.2115 0000576 119.5951 240.5348 15.30941014127608
SPACEBEE-19             
1 46303U 20061AH  22359.17236252  .00035884  00000+0  12621-2 0  9995
2 46303  97.4315  69.8031 0000518 138.0487 222.0793 15.29260485127578
SPACEBEE-18             
1 46304U 20061AJ  22358.72821153  .00041119  00000+0  14418-2 0  9990
2 46304  97.4316  69.3058 0000594 121.4936 238.6362 15.29329008127508
SPACEBEE-10             
1 46305U 20061AK  22359.43493820  .00059195  00000+0  16558-2 0  9996
2 46305  97.4314  71.7865 0000078 345.8394  14.2847 15.36455374127721
SPACEBEE-17             
1 46306U 20061AL  22359.43019804  .00038709  00000+0  13064-2 0  9990
2 46306  97.4312  70.3793 0000391 134.3112 225.8161 15.30586762127675
SPACEBEE-11             
1 46307U 20061AM  22359.19773811  .00047311  00000+0  14284-2 0  9993
2 46307  97.4313  71.0123 0000367 135.7927 224.3345 15.34111638127650
SPACEBEE-16             
1 46308U 20061AN  22359.46772681  .00037832  00000+0  12663-2 0  9994
2 46308  97.4314  70.5020 0000396 192.8504 167.2727 15.30860309127649
SPACEBEE-12             
1 46309U 20061AP  22358.78136498  .00044647  00000+0  13982-2 0  9996
2 46309  97.4310  70.3343 0000313 127.8735 232.2536 15.32961495127578
SPACEBEE-13             
1 46310U 20061AQ  22359.45565470  .00043227  00000+0  13864-2 0  9991
2 46310  97.4311  70.8073 0000451 127.6918 232.4364 15.32205114127705
SPACEBEE-14             
1 46311U 20061AR  22358.45103806  .00048953  00000+0  15925-2 0  9993
2 46311  97.4320  69.7140 0000438 126.8855 233.2427 15.31717884127535
SPACEBEENZ-3            
1 46938U 20085K   22358.88046145  .00068724  00000+0  12800-2 0  9990
2 46938  97.4530 140.3378 0008205 112.2895 247.9226 15.48572440116762
SPACEBEENZ-4            
1 46939U 20085L   22359.35706611  .00058474  00000+0  11517-2 0  9990
2 46939  97.4532 140.4742 0008700 112.0379 248.1795 15.46996793116815
SPACEBEENZ-5            
1 46941U 20085N   22359.13333979  .00058976  00000+0  12072-2 0  9996
2 46941  97.4547 140.0335 0008963 113.3543 246.8649 15.45867821116761
SPACEBEENZ-6            
1 46942U 20085P   22359.35613781  .00049773  00000+0  10537-2 0  9992
2 46942  97.4565 140.1041 0009111 114.0624 246.1579 15.44919438116789
SPACEBEENZ-2            
1 46957U 20085AE  22358.92824086  .00075943  00000+0  13351-2 0  9997
2 46957  97.4506 140.7120 0007997 111.0630 249.1477 15.50194613116752
SPACEBEENZ-1            
1 46959U 20085AG  22359.18868997  .00086075  00000+0  13915-2 0  9991
2 46959  97.4503 141.4360 0006999 107.8766 252.3251 15.52525320116345
SPACEBEE-52             
1 47425U 21006N   22358.73878531  .00100947  00000+0  21207-2 0  9997
2 47425  97.4177  61.5572 0006910 316.2503  43.8198 15.44945987107558
SPACEBEE-46             
1 47426U 21006P   22359.17245326  .00049790  00000+0  13581-2 0  9991
2 47426  97.4184  60.4679 0008013 322.1739  37.8941 15.37256359106565
SPACEBEE-47             
1 47427U 21006Q   22359.14302977  .00049883  00000+0  14042-2 0  9991
2 47427  97.4192  60.2056 0008085 323.9107  36.1590 15.36273414106549
SPACEBEE-59             
1 47428U 21006R   22359.11154204  .00045410  00000+0  13207-2 0  9991
2 47428  97.4191  59.9504 0008212 326.0786  33.9931 15.35271439106527
SPACEBEE-62             
1 47429U 21006S   22358.40747379  .00013450  00000+0  59468-3 0  9993
2 47429  97.4158  55.4098 0011296 337.4353  22.6385 15.21761974106185
SPACEBEE-61             
1 47431U 21006U   22359.15685502  .00034591  00000+0  12355-2 0  9990
2 47431  97.4231  56.9017 0004038 351.6455   8.4717 15.28757927106309
SPACEBEE-49             
1 47432U 21006V   22358.63075531  .00037111  00000+0  13370-2 0  9997
2 47432  97.4244  56.2786 0003884 354.8913   5.2286 15.28459177107170
SPACEBEE-60             
1 47433U 21006W   22358.59381393  .00039896  00000+0  14190-2 0  9992
2 47433  97.4246  56.3479 0003693 356.3944   3.7268 15.28863886107171
SPACEBEE-53             
1 47434U 21006X   22359.42827872  .00048958  00000+0  14792-2 0  9990
2 47434  97.4245  58.3585 0003203 346.9991  13.1168 15.34076066106418
SPACEBEE-63             
1 47442U 21006AF  22358.43140546  .00012169  00000+0  59574-3 0  9998
2 47442  97.4192  53.0335 0005646   6.2086 353.9217 15.18310000106003
SPACEBEE-50             
1 47443U 21006AG  22358.91160500  .00033213  00000+0  11998-2 0  9994
2 47443  97.4234  56.6121 0004216 351.8746   8.2425 15.28394068106263
SPACEBEE-51             
1 47444U 21006AH  22359.11160764  .00052405  00000+0  15244-2 0  9992
2 47444  97.4157  57.6528 0003621 347.5757  12.5396 15.35256126106392
SPACEBEE-48             
1 47447U 21006AL  22359.15100338  .00064378  00000+0  16385-2 0  9999
2 47447  97.4127  59.4371 0005871 324.2735  35.8117 15.39338436106528
SPACEBEE-40             
1 47449U 21006AN  22358.90978646  .00050459  00000+0  14548-2 0  9992
2 47449  97.4139  58.3966 0006446 328.7484  31.3375 15.35532478106435
SPACEBEE-41             
1 47451U 21006AQ  22358.74257302  .00055716  00000+0  16192-2 0  9994
2 47451  97.4153  58.2159 0006472 329.4296  30.6569 15.35255762106407
SPACEBEE-42             
1 47455U 21006AU  22358.74256309  .00053816  00000+0  15894-2 0  9991
2 47455  97.4149  58.0880 0006452 330.0331  30.0542 15.34756780106399
SPACEBEE-55             
1 47459U 21006AY  22358.91558609  .00012252  00000+0  56854-3 0  9993
2 47459  97.4114  54.2356 0010069 350.0127  10.0907 15.20136146106177
SPACEBEE-54             
1 47460U 21006AZ  22359.14580128  .00048599  00000+0  14377-2 0  9998
2 47460  97.4153  58.5072 0006358 331.5951  28.4945 15.34731538106456
SPACEBEE-58             
1 47464U 21006BD  22359.13554933  .00050450  00000+0  14185-2 0  9992
2 47464  97.4187  60.2198 0008049 323.0066  37.0622 15.36307317106542
SPACEBEE-57             
1 47465U 21006BE  22359.43318799  .00010554  00000+0  51750-3 0  9995
2 47465  97.4133  53.4576 0005163  11.4528 348.6823 15.18290821106155
SPACEBEE-44             
1 47466U 21006BF  22359.14116352  .00041056  00000+0  13631-2 0  9991
2 47466  97.4160  56.8745 0004153 348.8358  11.2790 15.31096825106347
SPACEBEE-56             
1 47468U 21006BH  22359.11826319  .00037804  00000+0  12942-2 0  9991
2 47468  97.4170  56.6440 0004209 348.9803  11.1344 15.30121665106320
SPACEBEE-45             
1 47470U 21006BK  22359.42148470  .00037348  00000+0  12542-2 0  9992
2 47470  97.4165  57.1561 0004355 349.3004  10.8143 15.30748835106380
SPACEBEE-43             
1 47480U 21006BV  22359.12030658  .00042125  00000+0  13831-2 0  9999
2 47480  97.4160  56.8922 0004043 348.2461  11.8685 15.31450760106348
SPACEBEE-87             
1 47703U 21015E   22359.48241114  .00444115  00000+0  25322-2 0  9990
2 47703  97.3886  81.3380 0004674 317.4508  42.6395 15.77705486101805
SPACEBEE-86             
1 47704U 21015F   22359.18079033  .00677986  00000+0  28500-2 0  9992
2 47704  97.3827  81.5158 0003343 313.9920  46.1074 15.83819667101770
SPACEBEE-85             
1 47705U 21015G   22359.20019731  .00769635  00000+0  28975-2 0  9994
2 47705  97.3842  81.6655 0003549 317.7964  42.3033 15.85930473101807
SPACEBEE-84             
1 47706U 21015H   22359.19723701  .00837606  28640-3  28729-2 0  9997
2 47706  97.3801  81.8021 0004859 313.3653  46.7215 15.89677089101810
SPACEBEE-83             
1 47707U 21015J   22359.49158650  .05666484  23867-5  30800-2 0  9996
2 47707  97.3605  82.5675 0007368 300.7965  59.2598 16.19677960101893
SPACEBEE-65             
1 48626U 21006ES  22359.07779076  .00051661  00000+0  14237-2 0  9996
2 48626  97.1818  41.2211 0008128 304.1176  55.9298 15.36926140106523
SPACEBEE-64             
1 48627U 21006ET  22359.10078177  .00053928  00000+0  14616-2 0  9994
2 48627  97.1819  41.3401 0008070 302.7084  57.3382 15.37433238106538
SPACEBEE-66             
1 48628U 21006EU  22359.10123945  .00047855  00000+0  13615-2 0  9999
2 48628  97.1823  41.0397 0008412 303.6770  56.3672 15.35948014106517
SPACEBEE-67             
1 48629U 21006EV  22359.39617022  .00046419  00000+0  13378-2 0  9996
2 48629  97.1822  41.2496 0008299 304.4390  55.6070 15.35551104106557
SPACEBEE-68             
1 48630U 21006EW  22358.84964153  .00045043  00000+0  13163-2 0  9991
2 48630  97.1825  40.6274 0008578 305.6342  54.4103 15.35119427106461
SPACEBEE-69             
1 48631U 21006EX  22359.08753065  .00045263  00000+0  13407-2 0  9992
2 48631  97.1824  40.7711 0008820 305.3190  54.7228 15.34690104106495
SPACEBEE-70             
1 48632U 21006EY  22358.08585059  .00051670  00000+0  15493-2 0  9994
2 48632  97.1828  39.7011 0009026 309.7646  50.2802 15.34268968106335
SPACEBEE-71             
1 48633U 21006EZ  22359.05243348  .00044681  00000+0  13561-2 0  9993
2 48633  97.1824  40.5140 0009064 306.5649  53.4759 15.33919620106473
SPACEBEE-72             
1 48634U 21006FA  22359.39507090  .00038824  00000+0  12047-2 0  9998
2 48634  97.1833  40.6697 0009579 304.8252  55.2089 15.33243946106516
SPACEBEE-73             
1 48635U 21006FB  22359.11137315  .00038940  00000+0  12243-2 0  9995
2 48635  97.1828  40.2999 0009627 307.3939  52.6427 15.32822921106462
